     2.10           NAVIGATION DATA                         RINEX VERSION / TYPE
SPIDER V4,0,0,3554                      2015 03 23 00:06    PGM / RUN BY / DATE 
   1.6764D-08  0.0000D+00 -1.1921D-07  5.9605D-08           ION ALPHA           
   1.2288D+05 -3.2768D+04 -1.9661D+05 -6.5536D+04           ION BETA            
    2.793967723846D-09 8.881784197001D-16   233472     1833 DELTA-UTC: A0,A1,T,W
    16                                                      LEAP SECONDS        
                                                            END OF HEADER       
22 15 02 22 06 00  0.0 3.210389986634D-04 4.206412995700D-12 0.000000000000D+00
    1.030000000000D+02 2.340625000000D+01 4.978778722631D-09-1.816674717645D+00
    1.104548573494D-06 7.513394346461D-03 1.324899494648D-05 5.153707078934D+03
    2.160000000000D+04 1.881271600723D-07 7.282647287491D-01-1.080334186554D-07
    9.232239576064D-01 1.031250000000D+02-2.068678134371D+00-8.123552497352D-09
   -5.571660494086D-11 1.000000000000D+00 1.833000000000D+03 0.000000000000D+00
    2.800000000000D+00 0.000000000000D+00-1.769512891769D-08 1.030000000000D+02
    2.160000000000D+04 0.000000000000D+00
27 15 02 22 06 00  0.0 5.315570160747D-05 2.614797267597D-12 0.000000000000D+00
    2.900000000000D+01 4.106250000000D+01 4.854487922756D-09-2.746007484680D+00
    2.142041921616D-06 2.031814889051D-03 5.695968866348D-06 5.153680824280D+03
    2.160000000000D+04-7.078051567078D-08-1.353033344504D+00-5.587935447693D-08
    9.660050789490D-01 2.735000000000D+02 1.348063254417D-01-8.297130982271D-09
    3.796586656168D-10 1.000000000000D+00 1.833000000000D+03 0.000000000000D+00
    2.000000000000D+00 0.000000000000D+00 1.862645149231D-09 2.900000000000D+01
    2.160000000000D+04 0.000000000000D+00
32 15 02 22 06 00  0.0-2.178093418479D-04 9.208633855451D-12 0.000000000000D+00
    1.000000000000D+02 3.403125000000D+01 4.577690670970D-09 1.177769386137D+00
    1.873821020126D-06 1.131486310624D-02 1.218914985657D-05 5.153577955246D+03
    2.160000000000D+04-3.352761268616D-08 8.268821767217D-01 2.663582563400D-07
    9.472277880909D-01 1.375937500000D+02 2.213169325672D-02-7.997118522951D-09
   -3.178703827933D-11 1.000000000000D+00 1.833000000000D+03 0.000000000000D+00
    2.800000000000D+00 0.000000000000D+00-3.725290298462D-09 1.000000000000D+02
    2.160000000000D+04 0.000000000000D+00
 1 15 02 22 05 59 44.0-8.737668395042D-06 4.547473508865D-13 0.000000000000D+00
    1.300000000000D+01-8.268750000000D+01 4.794128205532D-09 1.263594016346D+00
   -4.131346940994D-06 3.884437493980D-03 7.014721632004D-06 5.153669921875D+03
    2.158400000000D+04 3.166496753693D-08-2.962208544447D-01 4.656612873077D-08
    9.622214710151D-01 2.440937500000D+02 4.028186931640D-01-8.333918444237D-09
   -5.189501606218D-10 1.000000000000D+00 1.833000000000D+03 0.000000000000D+00
    2.000000000000D+00 0.000000000000D+00 5.587935447693D-09 1.300000000000D+01
    2.158400000000D+04 0.000000000000D+00
 3 15 02 22 06 00  0.0 2.221777103841D-04 1.978150976356D-11 0.000000000000D+00
    1.100000000000D+02 2.340625000000D+01 4.307322054586D-09-2.720238901006D+00
    1.173466444016D-06 9.494336554781D-04 1.269951462746D-05 5.153750190735D+03
    2.160000000000D+04 1.490116119385D-08 7.438343712987D-01 1.676380634308D-08
    9.595697462058D-01 1.326875000000D+02-2.955005618588D+00-7.892471565185D-09
    3.178703827933D-11 1.000000000000D+00 1.833000000000D+03 0.000000000000D+00
    2.800000000000D+00 0.000000000000D+00 1.396983861923D-09 1.100000000000D+02
    2.160000000000D+04 0.000000000000D+00
28 15 02 22 05 59 44.0 4.212064668536D-04 2.614797267597D-12 0.000000000000D+00
    6.000000000000D+00 3.471875000000D+01 3.686582150664D-09-2.040759927168D+00
    1.858919858932D-06 1.966616488062D-02 1.199357211590D-05 5.153694074631D+03
    2.158400000000D+04 3.073364496231D-07-2.328627996292D+00 1.918524503708D-07
    9.885026143702D-01 1.569062500000D+02-1.669600688885D+00-7.363877951860D-09
    3.221562738798D-10 1.000000000000D+00 1.833000000000D+03 0.000000000000D+00
    2.000000000000D+00 0.000000000000D+00-1.117587089539D-08 6.000000000000D+00
    2.158400000000D+04 0.000000000000D+00
 3 15 02 22 05 59 44.0 2.221767790616D-04 1.978150976356D-11 0.000000000000D+00
    1.000000000000D+01 2.340625000000D+01 4.306965006862D-09-2.722587114202D+00
    1.173466444016D-06 9.494174737483D-04 1.269951462746D-05 5.153750192642D+03
    2.158400000000D+04 1.490116119385D-08 7.438344810175D-01 1.676380634308D-08
    9.595697388912D-01 1.326875000000D+02-2.954991053776D+00-7.892471565185D-09
    3.178703827933D-11 1.000000000000D+00 1.833000000000D+03 0.000000000000D+00
    2.000000000000D+00 0.000000000000D+00 1.396983861923D-09 1.000000000000D+01
    2.158400000000D+04 0.000000000000D+00
23 15 02 22 06 00  0.0-9.046774357557D-05-2.614797267597D-12 0.000000000000D+00
    6.800000000000D+01 7.034375000000D+01 5.068068187342D-09 2.203960026684D+00
    3.602355718613D-06 9.792952681892D-03 4.751607775688D-06 5.153658372879D+03
    2.160000000000D+04-2.682209014893D-07 1.797619292413D+00 7.450580596924D-09
    9.488304206984D-01 2.829375000000D+02-2.712326467193D+00-8.520355088137D-09
    2.710827118335D-10 1.000000000000D+00 1.833000000000D+03 0.000000000000D+00
    2.000000000000D+00 0.000000000000D+00-2.002343535423D-08 6.800000000000D+01
    2.160000000000D+04 0.000000000000D+00
17 15 02 22 06 00  0.0-1.572472974658D-04-2.046363078989D-12 0.000000000000D+00
    3.200000000000D+01 3.675000000000D+01 4.769841410734D-09-2.839305278290D+00
    1.994892954826D-06 1.008545851801D-02 4.345551133156D-06 5.153716035843D+03
    2.160000000000D+04 1.937150955200D-07-1.305808027254D+00-8.940696716309D-08
    9.711545813093D-01 2.993437500000D+02-2.029865555751D+00-8.227485359669D-09
    3.175132379241D-10 1.000000000000D+00 1.833000000000D+03 0.000000000000D+00
    2.000000000000D+00 0.000000000000D+00-1.071020960808D-08 3.200000000000D+01
    2.160000000000D+04 0.000000000000D+00
32 15 02 22 05 59 44.0-2.178098075092D-04 9.208633855451D-12 0.000000000000D+00
    2.500000000000D+01 3.403125000000D+01 4.577333623246D-09 1.175435154049D+00
    1.873821020126D-06 1.131486089434D-02 1.218914985657D-05 5.153577959061D+03
    2.158400000000D+04-3.352761268616D-08 8.268822981439D-01 2.663582563400D-07
    9.472277910167D-01 1.375937500000D+02 2.213203265371D-02-7.997118522951D-09
   -3.142987953231D-11 1.000000000000D+00 1.833000000000D+03 0.000000000000D+00
    2.000000000000D+00 0.000000000000D+00-3.725290298462D-09 2.500000000000D+01
    2.158400000000D+04 0.000000000000D+00
 1 15 02 22 08 00  0.0-8.734408766031D-06 4.547473508865D-13 0.000000000000D+00
    1.400000000000D+01-7.225000000000D+01 4.828415445246D-09 2.316515967937D+00
   -3.740191459656D-06 3.884744830430D-03 6.873160600662D-06 5.153666908264D+03
    2.880000000000D+04-8.754432201385D-08-2.962813051456D-01-3.352761268616D-08
    9.622183228154D-01 2.482187500000D+02 4.024171748163D-01-8.242128757274D-09
   -4.296607514220D-10 1.000000000000D+00 1.833000000000D+03 0.000000000000D+00
    2.000000000000D+00 0.000000000000D+00 5.587935447693D-09 1.400000000000D+01
    2.880000000000D+04 0.000000000000D+00
 3 15 02 22 07 59 44.0 2.223192714155D-04 1.978150976356D-11 0.000000000000D+00
    1.100000000000D+01 2.056250000000D+01 4.278392307100D-09-1.671726879392D+00
    1.050531864166D-06 9.496075799689D-04 1.310184597969D-05 5.153751039505D+03
    2.878400000000D+04-4.842877388000D-08 7.437780431010D-01-1.490116119385D-08
    9.595698734797D-01 1.241875000000D+02-2.955718448829D+00-7.866756135400D-09
   -2.142946410599D-11 1.000000000000D+00 1.833000000000D+03 0.000000000000D+00
    2.000000000000D+00 0.000000000000D+00 1.396983861923D-09 1.100000000000D+01
    2.878400000000D+04 0.000000000000D+00
 4 15 02 22 08 00  0.0-7.659196853638D-06-7.958078640513D-13 0.000000000000D+00
    1.400000000000D+01-7.634375000000D+01 5.308792516701D-09 2.114907782261D+00
   -4.181638360023D-06 1.104433264118D-02 6.629154086113D-06 5.153723934174D+03
    2.880000000000D+04-7.264316082001D-08-3.163895427801D-01-2.402812242508D-07
    9.398492681745D-01 2.400937500000D+02 1.052436160385D+00-8.465709910865D-09
   -4.378753748480D-10 1.000000000000D+00 1.833000000000D+03 0.000000000000D+00
    2.000000000000D+00 0.000000000000D+00-6.519258022308D-09 1.400000000000D+01
    2.880000000000D+04 0.000000000000D+00
11 15 02 22 08 00  0.0-5.595735274255D-04-2.728484105319D-12 0.000000000000D+00
    3.500000000000D+01-5.153125000000D+01 6.624204296202D-09 1.806512170997D+00
   -3.036111593246D-06 1.561477407813D-02 3.607943654060D-06 5.153720563889D+03
    2.880000000000D+04 2.048909664154D-08-6.400604779566D-01-3.725290298462D-07
    8.925667639941D-01 2.732812500000D+02 1.383449064469D+00-9.172167914073D-09
   -1.903650709290D-10 1.000000000000D+00 1.833000000000D+03 0.000000000000D+00
    2.000000000000D+00 0.000000000000D+00-1.210719347000D-08 3.500000000000D+01
    2.880000000000D+04 0.000000000000D+00
14 15 02 22 08 00  0.0 8.513685315847D-05-3.524291969370D-12 0.000000000000D+00
    4.800000000000D+01 7.031250000000D+01 4.681266485562D-09-1.963912439625D+00
    3.637745976448D-06 7.751470548101D-03 4.369765520096D-06 5.153782648087D+03
    2.880000000000D+04 2.104789018631D-07 1.867809674684D+00-1.247972249985D-07
    9.670681069084D-01 2.999062500000D+02-1.974093281526D+00-8.265343964808D-09
    2.446530478206D-10 1.000000000000D+00 1.833000000000D+03 0.000000000000D+00
    2.000000000000D+00 0.000000000000D+00-9.313225746155D-09 4.800000000000D+01
    2.880000000000D+04 0.000000000000D+00
